NORAD_CAT_ID,OBJECT_NAME,OBJECT_TYPE,EPOCH,MEAN_MOTION,ECCENTRICITY,INCLINATION,RA_OF_ASC_NODE,ARG_OF_PERICENTER,MEAN_ANOMALY,BSTAR,MEAN_MOTION_DOT,MEAN_MOTION_DDOT,TLE_LINE0,TLE_LINE1,TLE_LINE2,SEMIMAJOR_AXIS,PERIOD,APOGEE,PERIGEE,DECAYED
52298.0,STARLINK-3760,PAYLOAD,2022-04-25 18:00:00,15.82126128,0.0001252,53.217,354.8241,55.8651,159.7123,-0.0045242,-0.00858604,0.0,0 STARLINK-3760,1 52298U 22041AP  22115.75001157 -.00858604  00000-0 -45242-2 0  9994,2 52298  53.2170 354.8241 0001252  55.8651 159.7123 15.82126128  1862,6702.566,91.017,325.27,323.592,0.0
52298.0,STARLINK-3760,PAYLOAD,2022-04-26 14:00:01,15.80565315,0.0001116,53.2174,350.6495,69.2702,213.1601,-0.0049784,-0.00876404,0.0,0 STARLINK-3760,1 52298U 22041AP  22116.58335648 -.00876404  00000-0 -49784-2 0  9994,2 52298  53.2174 350.6495 0001116  69.2702 213.1601 15.80565315  1999,6706.978,91.107,329.591,328.094,0.0
52298.0,STARLINK-3760,PAYLOAD,2022-04-26 22:00:00,15.79937955,0.0001002999999999,53.2175,348.9849,79.5045,300.2512,-0.0051424,-0.00879065,0.0,0 STARLINK-3760,1 52298U 22041AP  22116.91667824 -.00879065  00000-0 -51424-2 0  9995,2 52298  53.2175 348.9849 0001003  79.5045 300.2512 15.79937955  1475,6708.753000000002,91.143,331.291,329.945,0.0
52298.0,STARLINK-3760,PAYLOAD,2022-04-27 12:00:00,15.78834166,0.0001102,53.2173,346.0698,60.7325,37.6441,-0.0053799,-0.00874763,0.0,0 STARLINK-3760,1 52298U 22041AP  22117.50001157 -.00874763  00000-0 -53799-2 0  9999,2 52298  53.2173 346.0698 0001102  60.7325  37.6441 15.78834166  2132,6711.88,91.207,334.4840000000001,333.005,0.0
52298.0,STARLINK-3760,PAYLOAD,2022-04-27 14:00:01,15.78678373,0.0001208,53.2174,345.6537,70.531,141.8101,-0.0054325,-0.00876882,0.0,0 STARLINK-3760,1 52298U 22041AP  22117.58335648 -.00876882  00000-0 -54325-2 0  9992,2 52298  53.2174 345.6537 0001208  70.5310 141.8101 15.78678373  1574,6712.321,91.216,334.997,333.375,0.0
52298.0,STARLINK-3760,PAYLOAD,2022-04-28 04:00:01,15.7757798,0.0001012,53.2172,342.7481,78.4999,209.8113,-0.0057113999999999,-0.00877001,0.0,0 STARLINK-3760,1 52298U 22041AP  22118.16668981 -.00877001  00000-0 -57114-2 0  9999,2 52298  53.2172 342.7481 0001012  78.4999 209.8113 15.77577980  2245,6715.441999999999,91.279,337.987,336.6280000000001,0.0
52298.0,STARLINK-3760,PAYLOAD,2022-04-28 14:00:01,15.76790247,0.0001229,53.2175,340.6718,60.0217,75.3593,-0.0059054,-0.00875528,0.0,0 STARLINK-3760,1 52298U 22041AP  22118.58334491 -.00875528  00000-0 -59054-2 0  9998,2 52298  53.2175 340.6718 0001229  60.0217  75.3593 15.76790247  1731,6717.679,91.325,340.369,338.718,0.0
52298.0,STARLINK-3760,PAYLOAD,2022-04-29 04:00:00,15.75689744,0.00012,53.2172,337.774,68.2208,139.1609,-0.0062141,-0.00877115,0.0,0 STARLINK-3760,1 52298U 22041AP  22119.16667824 -.00877115  00000-0 -62141-2 0  9997,2 52298  53.2172 337.7740 0001200  68.2208 139.1609 15.75689744  2409,6720.806,91.389,343.478,341.865,0.0
52298.0,STARLINK-3760,PAYLOAD,2022-04-29 14:00:01,15.74900766,0.0001093,53.2175,335.704,63.1669,348.5143,-0.0063966,-0.00872476,0.0,0 STARLINK-3760,1 52298U 22041AP  22119.58334491 -.00872476  00000-0 -63966-2 0  9995,2 52298  53.2175 335.7040 0001093  63.1669 348.5143 15.74900766  1898,6723.051,91.434,345.65,344.181,0.0
52298.0,STARLINK-3760,PAYLOAD,2022-04-29 22:00:00,15.74273957,0.0001333,53.2173,334.0532,58.5625,83.7042,-0.0066113999999999,-0.00876967,0.0,0 STARLINK-3760,1 52298U 22041AP  22119.91667824 -.00876967  00000-0 -66114-2 0  9998,2 52298  53.2173 334.0532 0001333  58.5625  83.7042 15.74273957  1948,6724.835,91.471,347.596,345.80400000000014,0.0
52298.0,STARLINK-3760,PAYLOAD,2022-04-30 06:00:00,15.73480117,0.0001213,53.2173,332.4007,73.7045,158.4224,-0.0029016,-0.00394051,0.0,0 STARLINK-3760,1 52298U 22041AP  22120.25001157 -.00394051  00000-0 -29016-2 0  9997,2 52298  53.2173 332.4007 0001213  73.7045 158.4224 15.73480117  2578,6727.097,91.517,349.778,348.146,0.0
52298.0,STARLINK-3760,PAYLOAD,2022-04-30 12:00:00,15.73204655,0.0001207,53.2172,331.1619,67.6058,141.3757,-8.9766e-06,-1.88e-05,0.0,0 STARLINK-3760,1 52298U 22041AP  22120.50001157 -.00001880  00000-0 -89766-5 0  9991,2 52298  53.2172 331.1619 0001207  67.6058 141.3757 15.73204655  2619,6727.882,91.533,350.559,348.935,0.0
52298.0,STARLINK-3760,PAYLOAD,2022-04-30 14:00:01,15.73204844,0.0001192,53.2176,330.7497,71.4615,249.7529,1.0901e-06,-4.67e-06,0.0,0 STARLINK-3760,1 52298U 22041AP  22120.58334491 -.00000467  00000-0  10901-5 0  9993,2 52298  53.2176 330.7497 0001192  71.4615 249.7529 15.73204844  2055,6727.880999999999,91.533,350.548,348.944,0.0
52298.0,STARLINK-3760,PAYLOAD,2022-04-30 20:00:01,15.73282765,0.0001199,53.2135,329.5130000000001,59.5711,238.5229,-0.00061216,-0.00085962,0.0,0 STARLINK-3760,1 52298U 22041AP  22120.83334491 -.00085962  00000-0 -61216-3 0  9998,2 52298  53.2135 329.5130 0001199  59.5711 238.5229 15.73282765  2669,6727.659000000002,91.528,350.331,348.718,0.0
52298.0,STARLINK-3760,PAYLOAD,2022-04-30 22:00:00,15.73237138,0.0001205,53.2142,329.1017,54.1974,356.1585,-4.0684e-05,-6.334e-05,0.0,0 STARLINK-3760,1 52298U 22041AP  22120.91667824 -.00006334  00000-0 -40684-4 0  9999,2 52298  53.2142 329.1017 0001205  54.1974 356.1585 15.73237138  2102,6727.7890000000025,91.531,350.465,348.844,0.0
52298.0,STARLINK-3760,PAYLOAD,2022-05-01 14:00:01,15.73153171,0.0001155,53.2143,325.7985,70.1339,158.0772,-0.00010151,-0.00014812,0.0,0 STARLINK-3760,1 52298U 22041AP  22121.58334491 -.00014812  00000-0 -10151-3 0  9999,2 52298  53.2143 325.7985 0001155  70.1339 158.0772 15.73153171  2219,6728.029,91.536,350.671,349.117,0.0
52298.0,STARLINK-3760,PAYLOAD,2022-05-01 20:00:01,15.73143019,0.0001174,53.2146,324.5631,53.7302,151.1499,-0.00048532,-0.00068016,0.0,0 STARLINK-3760,1 52298U 22041AP  22121.83334491 -.00068016  00000-0 -48532-3 0  9996,2 52298  53.2146 324.5631 0001174  53.7302 151.1499 15.73143019  2822,6728.058000000001,91.536,350.713,349.1330000000001,0.0
52298.0,STARLINK-3760,PAYLOAD,2022-05-01 22:00:01,15.73086545,0.0001175,53.2149,324.151,52.9409,264.2308,0.00028176,0.00038915,0.0,0 STARLINK-3760,1 52298U 22041AP  22121.91668981  .00038915  00000-0  28176-3 0  9994,2 52298  53.2149 324.1510 0001175  52.9409 264.2308 15.73086545  2260,6728.219,91.54,350.874,349.293,0.0
52298.0,STARLINK-3760,PAYLOAD,2022-05-02 04:00:00,15.73105795,0.0001091,53.2145,322.9132,47.9465,245.7703,0.00078814,0.00111012,0.0,0 STARLINK-3760,1 52298U 22041AP  22122.16667824  .00111012  00000-0  78814-3 0  9991,2 52298  53.2145 322.9132 0001091  47.9465 245.7703 15.73105795  2874,6728.1640000000025,91.539,350.76300000000015,349.295,0.0
52298.0,STARLINK-3760,PAYLOAD,2022-05-02 14:00:01,15.73248715,0.0001132,53.2152,320.85,63.2533,71.5158,7.3762e-05,9.765e-05,0.0,0 STARLINK-3760,1 52298U 22041AP  22122.58334491  .00009765  00000-0  73762-4 0  9997,2 52298  53.2152 320.8500 0001132  63.2533  71.5158 15.73248715  2364,6727.755999999999,91.53,350.3830000000001,348.86,0.0
52298.0,STARLINK-3760,PAYLOAD,2022-05-02 20:00:01,15.73259189,0.0001204,53.215,319.6144,48.5873,62.9371,-0.00036198,-0.00051241,0.0,0 STARLINK-3760,1 52298U 22041AP  22122.83334491 -.00051241  00000-0 -36198-3 0  9994,2 52298  53.2150 319.6144 0001204  48.5873  62.9371 15.73259189  2970,6727.726,91.53,350.401,348.781,0.0
52298.0,STARLINK-3760,PAYLOAD,2022-05-02 22:00:01,15.73222673,0.0001252,53.2153,319.2023,45.8831,177.9642,8.659200000000001e-05,0.00011561,0.0,0 STARLINK-3760,1 52298U 22041AP  22122.91668981  .00011561  00000-0  86592-4 0  9990,2 52298  53.2153 319.2023 0001252  45.8831 177.9642 15.73222673  2428,6727.831,91.532,350.538,348.853,0.0
52298.0,STARLINK-3760,PAYLOAD,2022-05-03 12:00:00,15.73213071,0.0001192,53.215,316.3131,58.6333,230.8246,0.00025903,0.00035909,0.0,0 STARLINK-3760,1 52298U 22041AP  22123.50001157  .00035909  00000-0  25903-3 0  9992,2 52298  53.2150 316.3131 0001192  58.6333 230.8246 15.73213071  3089,6727.858,91.532,350.525,348.921,0.0
52298.0,STARLINK-3760,PAYLOAD,2022-05-03 14:00:01,15.73256081,0.0001262,53.215,315.9011,58.0781,343.6062,-0.00035902,-0.00050823,0.0,0 STARLINK-3760,1 52298U 22041AP  22123.58334491 -.00050823  00000-0 -35902-3 0  9994,2 52298  53.2150 315.9011 0001262  58.0781 343.6062 15.73256081  2525,6727.735,91.53,350.449,348.751,0.0
52298.0,STARLINK-3760,PAYLOAD,2022-05-03 22:00:00,15.73180124,0.0001445,53.2149,314.2535,49.8459,80.8407,0.00067271,0.00094781,0.0,0 STARLINK-3760,1 52298U 22041AP  22123.91667824  .00094781  00000-0  67271-3 0  9993,2 52298  53.2149 314.2535 0001445  49.8459  80.8407 15.73180124  2582,6727.9519999999975,91.534,350.789,348.845,0.0
52298.0,STARLINK-3760,PAYLOAD,2022-05-04 04:00:00,15.7327584,0.0001358,53.2147,313.0151,49.7291,57.6488,-0.00038201,-0.00054063,0.0,0 STARLINK-3760,1 52298U 22041AP  22124.16667824 -.00054063  00000-0 -38201-3 0  9993,2 52298  53.2147 313.0151 0001358  49.7291  57.6488 15.73275840  3185,6727.679,91.529,350.458,348.63,0.0
52298.0,STARLINK-3760,PAYLOAD,2022-05-04 12:00:00,15.73318901,0.0001161,53.216,311.3647,65.1751,131.1173,-0.0017087,-0.00235037,0.0,0 STARLINK-3760,1 52298U 22041AP  22124.50001157 -.00235037  00000-0 -17087-2 0  9992,2 52298  53.2160 311.3647 0001161  65.1751 131.1173 15.73318901  3237,6727.556,91.526,350.202,348.64,0.0
52298.0,STARLINK-3760,PAYLOAD,2022-05-04 14:00:01,15.73398882,0.0001093,53.2164,310.9529,56.844,251.6741,-0.0036912,-0.00493561,0.0,0 STARLINK-3760,1 52298U 22041AP  22124.58334491 -.00493561  00000-0 -36912-2 0  9996,2 52298  53.2164 310.9529 0001093  56.8440 251.6741 15.73398882  2684,6727.328,91.522,349.92900000000014,348.458,0.0
52298.0,STARLINK-3760,PAYLOAD,2022-05-04 20:00:01,15.73264632,0.0001327,53.2152,309.7166,39.8691,245.4942,-0.00030439,-0.00043238,0.0,0 STARLINK-3760,1 52298U 22041AP  22124.83335648 -.00043238  00000-0 -30439-3 0  9990,2 52298  53.2152 309.7166 0001327  39.8691 245.4942 15.73264632  3290,6727.7109999999975,91.529,350.469,348.68300000000005,0.0
